#dP2024  5 27  0  0  0.00000000      96 __u+U IGS20 FIT  IAC
## 2316  86400.00000000   900.00000000 60457 0.0000000000000
+   53   G02G03G04G05G06G08G09G10G11G12G13G14G15G16G17G18G19
+        G20G21G22G23G24G25G26G27G28G29G30G31G32R01R02R03R04
+        R05R07R08R09R11R12R13R14R15R16R17R18R19R20R21R22R24
+        R25R26  0  0  0  0  0  0  0  0  0  0  0  0  0  0  0
+          0  0  0  0  0  0  0  0  0  0  0  0  0  0  0  0  0
++         6  6  7  7  5  6  7  6  7  5  6  6  5  6  8  7  7
++         7  6  6  6  6  6  7  7  6  7  6  5  6  7  6  8  7
++         6  7  7  6  6  6  7  5  6  7  7  5  5  7  6  6  7
++         7  8  0  0  0  0  0  0  0  0  0  0  0  0  0  0  0
++         0  0  0  0  0  0  0  0  0  0  0  0  0  0  0  0  0
%c M  cc GPS ccc cccc cccc cccc cccc ccccc ccccc ccccc ccccc
%c cc cc ccc ccc cccc cccc cccc cccc ccccc ccccc ccccc ccccc
%f  0.0000000  0.000000000  0.00000000000  0.000000000000000
%f  0.0000000  0.000000000  0.00000000000  0.000000000000000
%i    0    0    0    0      0      0      0      0         0
%i    0    0    0    0      0      0      0      0         0
/* INFORMATION & ANALYSIS CENTER (IAC)      ULTRA-RAPID DATA
/* S/V CLOCKS ARE ALIGNED TO GNSS TIME                      
/* G:C1WC2W R:C1PC2P E:C1XC5X C:C2IC6I J:C1CC2S             
/* PCV:IGS20_2290 OL/AL:FES2004  NONE     YN ORB:CoN CLK:CoN
*  2024 05 27 11  0  0.00000000
PG02  14463.922844 -22041.547166   -903.772942   -428.759873
PG03   8418.799516 -13135.629672 -21631.786994    384.306734
PG04   3511.861145 -21705.071204 -14786.117210    370.192647
PG05 -22328.569089   6223.768045  12866.701201   -174.187761
PG06 -14652.346126  -4666.886096 -21611.414035    251.374857
PG08  10289.897741 -13125.253348  20466.020930    199.905358
PG09  -7070.950707 -25249.471668  -4130.687203    211.862935
PG10  22123.832712  10817.336851  10569.346715    -30.647847
PG11 -20674.740661   7634.935509 -14763.042007   -672.028626
PG12 -11300.599151  12285.215817 -20930.273575   -508.954584
PG13 -14366.256606   3959.738357  21774.010853    653.612859
PG14 -19069.555574 -13265.497563  13101.812811    410.871485
PG15  -8631.479095  14598.830554  19899.971892    163.544452
PG16  24554.717369  -1096.404442  10287.760141   -280.661622
PG17 -12843.292649 -21258.318479  -8765.307986    702.272548
PG18    245.046153  19016.836284  18465.714926   -616.705958
PG19 -15528.808940 -14133.913351 -16675.218763    487.901286
PG20 -26227.640041   2343.039591   2865.406114    375.085620
PG21  16851.921694 -19422.417304   4318.221337    119.151561
PG22 -23413.687232 -10670.588055   6349.921303    -19.300828
PG23  11883.933892  14469.640604  18940.266069    235.660414
PG24 -14663.732580  21869.583641    -35.925031   -473.202400
PG25   -196.937733  15691.913436 -21780.274648    496.421493
PG26  26192.707264   4579.184072  -3164.931504    146.585820
PG27  15604.854983   -658.956451  21244.903397    -25.852882
PG28  13596.328266   7158.921484 -21674.439973   -262.035326
PG29   2770.456543  25535.736475  -6565.426374   -596.798526
PG30 -10281.347886 -12264.753139  21322.806647   -383.902724
PG31  19670.631417  -3373.560658 -17927.941000   -227.679088
PG32  15309.545250  18902.030851 -10687.996751   -617.681813
PR01  18606.994377   9324.059634 -14732.105305     86.613608
PR02   9888.671221  -4941.066330 -22944.076982    -23.083493
PR03  -4236.990989 -17354.728817 -18132.639778    100.937480
PR04 -15481.323993 -19944.744258  -3567.389144    238.327029
PR05 -18473.870155 -11916.339939  12936.485581    132.123256
PR07   4867.947225  17777.266560  17700.317219     83.271811
PR08  15703.233585  19833.379760   3458.262559     -4.235324
PR09 -22106.551038   9753.951398  -8284.778919    188.884922
PR11   9131.999596   8703.418150 -22154.161053     23.356727
PR12  23697.208679   -626.531788  -9405.645950     40.613758
PR13  23365.847877  -8361.864313   5888.925516    -47.776151
PR14   8045.074738 -12257.436819  20881.598909     26.509435
PR15 -10751.473487  -8282.224801  21621.482369     79.401228
PR16 -23604.712766    645.632054   9707.992406     25.947792
PR17   6567.336354 -24475.109450  -3097.025669     90.471313
PR18  -2186.760300 -18253.114560 -17650.339650    144.089904
PR19  -9255.093625  -4916.519817 -23262.396666   -278.132956
PR20 -13166.452926  16147.606144 -14744.220913   -113.465857
PR21  -6873.736061  24378.932268   2891.425573   -104.250855
PR22   2678.217870  17626.768366  18269.724018    108.813890
PR24  12664.486606 -17018.604478  14186.813024    -57.466790
PR25  -7344.510272  24185.164590   3361.712866     15.849938
PR26  15226.731914  19913.059266   4670.760259     -7.538442
*  2024 05 27 11 15  0.00000000
PG02  14676.690825 -21892.242109   1981.453905   -428.753762
PG03  10779.322538 -12756.223886 -20777.989039    384.323692
PG04   4310.671899 -20069.005417 -16763.818569    370.200146
PG05 -23661.982002   5922.313017  10437.620742   -174.189338
PG06 -13116.173577  -6643.846463 -22065.195467    251.356615
PG08  11369.271558 -10961.690637  21190.011706    199.922895
PG09  -6584.074996 -24784.066791  -6891.190253    211.875799
PG10  20811.253461  10775.945505  13012.398638    -30.654365
PG11 -19635.825658   6146.534344 -16744.986850   -672.036627
PG12 -13516.567499  11744.266842 -19882.219486   -508.957879
PG13 -14994.250138   1511.402222  21679.548014    653.615309
PG14 -17445.299167 -13222.493500  15222.241599    410.879772
PG15  -9978.705889  12569.257650  20641.324450    163.548323
PG16  25545.276880   -667.388559   7709.420286   -280.652425
PG17 -12912.176243 -22188.410927  -6056.643087    702.269269
PG18  -1121.929063  20505.650990  16742.114139   -616.710770
PG19 -15892.783105 -15850.418716 -14680.515347    487.905938
PG20 -26399.624267   2065.193901     20.699206    375.084428
PG21  16785.242446 -18725.976752   7132.115917    119.149679
PG22 -22541.960446 -10731.501291   9039.387219    -19.305658
PG23   9659.711183  14320.793079  20256.300112    235.668774
PG24 -14865.987818  21502.160525   2782.741636   -473.205187
PG25  -2605.376585  15408.724301 -21804.961632    496.422057
PG26  25680.270319   4854.025853  -5877.060531    146.580526
PG27  16510.689280   1611.626390  20544.427411    -25.854279
PG28  12154.633931   9180.915529 -21768.715533   -262.050280
PG29   2283.445536  24747.680898  -9253.997099   -596.796914
PG30  -8766.983257 -14119.057385  20818.782483   -383.897279
PG31  18455.728224  -1675.610621 -19381.341961   -227.679199
PG32  15538.298603  19997.935996  -8122.780597   -617.681261
PR01  19875.153637  10399.414148 -12124.734709     86.614095
PR02  11842.721010  -2924.154122 -22363.334833    -23.083777
PR03  -2658.187133 -15594.979287 -19941.133197    100.938475
PR04 -15167.602468 -19361.239087  -6713.878593    238.328146
PR05 -19562.418751 -12846.058851  10139.533613    132.123728
PR07   3349.472762  16058.749581  19594.632060     83.273012
PR08  15395.066581  19280.585278   6598.137038     -4.235876
PR09 -22884.754162  10071.989123  -5248.521835    188.886766
PR11   6437.690519   9381.444917 -22815.537679     23.355196
PR12  22371.127318   -408.364883 -12231.400252     40.614066
PR13  23848.227281  -8623.982569   2742.170255    -47.776513
PR14  10427.396301 -12945.255268  19354.088801     26.509306
PR15  -8110.458114  -8918.711733  22502.356244     79.400903
PR16 -22245.491173    433.043834  12521.626120     25.948235
PR17   6434.038063 -24705.456618    125.774913     90.473918
PR18  -1723.636932 -20248.897456 -15375.735311    144.091610
PR19  -8363.443755  -7622.760392 -22867.472654   -278.133713
PR20 -12375.072753  14339.094493 -17106.228623   -113.466115
PR21  -6728.153531  24588.525738   -342.835346   -104.253547
PR22   2100.908612  19667.542710  16136.367923    108.811068
PR24  12019.266438 -15231.817989  16577.695121    -57.468330
PR25  -7275.621023  24437.633209    157.668906     15.658929
PR26  14804.087305  19255.977732   7772.601595     -7.537900
EOF
